ONEWEB-0473             
1 51653U 22012AH  26201.08800300 -.00000589  00000+0 -17247-2 0  9993
2 51653  87.8815  29.7185 0001849  90.6599 269.4741 13.10373582213610
ONEWEB-0474             
1 51654U 22012AJ  26201.07951718 -.00000439  00000+0 -12946-2 0  9998
2 51654  87.8823  29.7072 0001643  96.0874 264.0440 13.10370144213600
ONEWEB-0475             
1 51655U 22012AK  26201.40644979  .00000064  00000+0  13161-3 0  9997
2 51655  87.9152 359.2646 0001578 115.4199 244.7096 13.17648543218063
ONEWEB-0490             
1 54113U 22138A   26201.26651854 -.00000062  00000+0 -18617-3 0  9993
2 54113  87.9192 298.3821 0002122 105.5837 254.5530 13.19725343181193
ONEWEB-0492             
1 54114U 22138B   26201.29178516  .00000120  00000+0  26786-3 0  9995
2 54114  87.9183 298.3763 0002253 102.1568 257.9817 13.19724166181207
ONEWEB-0495             
1 54115U 22138C   26201.26967669  .00000055  00000+0  10493-3 0  9993
2 54115  87.9185 298.3834 0002363 115.7198 244.4179 13.19727029181180
ONEWEB-0497             
1 54116U 22138D   26201.28230586  .00000116  00000+0  25760-3 0  9998
2 54116  87.9191 298.3749 0002054 102.9912 257.1450 13.19724274181173
ONEWEB-0499             
1 54117U 22138E   26201.34154940 -.00000076  00000+0 -22118-3 0  9996
2 54117  87.9184 298.3698 0001978 106.5339 253.6011 13.19724290181190
ONEWEB-0500             
1 54118U 22138F   26201.57137215 -.00000024  00000+0 -91591-4 0  9993
2 54118  87.9192 298.3208 0002066  98.5814 261.5553 13.19726115181236
ONEWEB-0501             
1 54119U 22138G   26201.52556963  .00000078  00000+0  16303-3 0  9998
2 54119  87.9191 298.3301 0002201 111.3291 248.8077 13.19726832181206
ONEWEB-0502             
1 54120U 22138H   26201.28388318  .00000084  00000+0  17632-3 0  9993
2 54120  87.9195 298.3671 0001980 107.8680 252.2669 13.19724298181195
ONEWEB-0503             
1 54121U 22138J   26201.27283480  .00000093  00000+0  19923-3 0  9992
2 54121  87.9196 298.3758 0001731 100.0912 260.0416 13.19726756181187
ONEWEB-0504             
1 54122U 22138K   26201.56346602 -.00000062  00000+0 -18619-3 0  9990
2 54122  87.9191 298.3223 0001958 107.9450 252.1896 13.19726780181231
ONEWEB-0505             
1 54123U 22138L   26201.56029992  .00000064  00000+0  12734-3 0  9993
2 54123  87.9191 298.3234 0002118 113.1235 247.0121 13.19724747181216
ONEWEB-0506             
1 54124U 22138M   26201.53505194  .00000054  00000+0  10317-3 0  9998
2 54124  87.9194 298.3263 0002110 109.5094 250.6267 13.19725681181204
ONEWEB-0507             
1 54125U 22138N   26201.32811390 -.00000003  00000+0 -39980-4 0  9998
2 54125  87.9184 298.3765 0002099 105.6064 254.5301 13.19726339181226
ONEWEB-0508             
1 54126U 22138P   26201.32496417  .00000022  00000+0  21791-4 0  9998
2 54126  87.9186 298.3767 0002306 109.1512 250.9871 13.19725989181209
ONEWEB-0509             
1 54127U 22138Q   26201.52714044  .00000138  00000+0  31318-3 0  9993
2 54127  87.9195 298.3294 0002088 104.9116 255.2248 13.19725046181205
ONEWEB-0510             
1 54128U 22138R   26201.23772940  .00000043  00000+0  74830-4 0  9993
2 54128  87.9179 267.8501 0001880  85.7388 274.3960 13.20771555183647
ONEWEB-0511             
1 54129U 22138S   26201.29652677  .00000065  00000+0  12934-3 0  9994
2 54129  87.9192 298.3767 0001789 105.3194 254.8137 13.19723677181207
ONEWEB-0512             
1 54130U 22138T   26201.51607332  .00000107  00000+0  23541-3 0  9992
2 54130  87.9184 298.3358 0001993 110.4058 249.7289 13.19724660181203
ONEWEB-0513             
1 54131U 22138U   26201.28062615  .00000084  00000+0  17649-3 0  9992
2 54131  87.9191 298.3227 0001807 127.4096 232.7202 13.20270336181082
ONEWEB-0514             
1 54132U 22138V   26201.38024219  .00000086  00000+0  18298-3 0  9995
2 54132  87.9192 298.3594 0001962  96.5083 263.6273 13.19724510181206
ONEWEB-0515             
1 54133U 22138W   26201.22427148  .00000037  00000+0  58752-4 0  9993
2 54133  87.9183 267.8489 0002662  82.8773 277.2663 13.20772049183661
ONEWEB-0516             
1 54134U 22138X   26201.27915293  .00000091  00000+0  19616-3 0  9997
2 54134  87.9185 298.3830 0002179 101.4910 258.6467 13.19724552181192
ONEWEB-0517             
1 54135U 22138Y   26201.25862003  .00000224  00000+0  52600-3 0  9994
2 54135  87.9190 298.3820 0001706 100.5311 259.6014 13.19725682181192
ONEWEB-0518             
1 54136U 22138Z   26201.27757856  .00000064  00000+0  12741-3 0  9990
2 54136  87.9185 298.3854 0002236  99.8139 260.3247 13.19724790181197
ONEWEB-0519             
1 54137U 22138AA  26201.53029367  .00000024  00000+0  27786-4 0  9991
2 54137  87.9191 298.3291 0001815  99.4993 260.6345 13.19723842181230
ONEWEB-0520             
1 54138U 22138AB  26201.26178083 -.00000048  00000+0 -15327-3 0  9997
2 54138  87.9193 298.3827 0002111 106.2075 253.9291 13.19725393181188
ONEWEB-0521             
1 54139U 22138AC  26201.52238670  .00000134  00000+0  30218-3 0  9996
2 54139  87.9197 298.3202 0001812  97.9565 262.1773 13.19724469181165
