OBJECT_NAME,OBJECT_ID,EPOCH,MEAN_MOTION,ECCENTRICITY,INCLINATION,RA_OF_ASC_NODE,ARG_OF_PERICENTER,MEAN_ANOMALY,EPHEMERIS_TYPE,CLASSIFICATION_TYPE,NORAD_CAT_ID,ELEMENT_SET_NO,REV_AT_EPOCH,BSTAR,MEAN_MOTION_DOT,MEAN_MOTION_DDOT
ONEWEB-0473,2022-012AH,2026-07-20T02:06:43.459200,13.10373582,.00018499,87.8815,29.7185,90.6599,269.4741,0,U,51653,999,21361,-.1724714E-2,-.589E-5,0
ONEWEB-0474,2022-012AJ,2026-07-20T01:54:30.284352,13.10370144,.00016431,87.8823,29.7072,96.0874,264.0440,0,U,51654,999,21360,-.1294556E-2,-.439E-5,0
ONEWEB-0475,2022-012AK,2026-07-20T09:45:17.261856,13.17648543,.00015789,87.9152,359.2646,115.4199,244.7096,0,U,51655,999,21806,.13160788E-3,.64E-6,0
ONEWEB-0490,2022-138A,2026-07-20T06:23:47.201856,13.19725343,.00021229,87.9192,298.3821,105.5837,254.5530,0,U,54113,999,18119,-.18617238E-3,-.62E-6,0
ONEWEB-0492,2022-138B,2026-07-20T07:00:10.237824,13.19724166,.00022535,87.9183,298.3763,102.1568,257.9817,0,U,54114,999,18120,.26785533E-3,.12E-5,0
ONEWEB-0495,2022-138C,2026-07-20T06:28:20.066016,13.19727029,.00023631,87.9185,298.3834,115.7198,244.4179,0,U,54115,999,18118,.1049296E-3,.55E-6,0
ONEWEB-0497,2022-138D,2026-07-20T06:46:31.226304,13.19724274,.00020541,87.9191,298.3749,102.9912,257.1450,0,U,54116,999,18117,.25760339E-3,.116E-5,0
ONEWEB-0499,2022-138E,2026-07-20T08:11:49.868160,13.19724290,.00019786,87.9184,298.3698,106.5339,253.6011,0,U,54117,999,18119,-.22117962E-3,-.76E-6,0
ONEWEB-0500,2022-138F,2026-07-20T13:42:46.553760,13.19726115,.00020664,87.9192,298.3208,98.5814,261.5553,0,U,54118,999,18123,-.91591298E-4,-.24E-6,0
ONEWEB-0501,2022-138G,2026-07-20T12:36:49.216032,13.19726832,.00022011,87.9191,298.3301,111.3291,248.8077,0,U,54119,999,18120,.1630258E-3,.78E-6,0
ONEWEB-0502,2022-138H,2026-07-20T06:48:47.506752,13.19724298,.00019802,87.9195,298.3671,107.8680,252.2669,0,U,54120,999,18119,.17632171E-3,.84E-6,0
ONEWEB-0503,2022-138J,2026-07-20T06:32:52.926720,13.19726756,.00017312,87.9196,298.3758,100.0912,260.0416,0,U,54121,999,18118,.19922797E-3,.93E-6,0
ONEWEB-0504,2022-138K,2026-07-20T13:31:23.464128,13.19726780,.00019581,87.9191,298.3223,107.9450,252.1896,0,U,54122,999,18123,-.18619359E-3,-.62E-6,0
ONEWEB-0505,2022-138L,2026-07-20T13:26:49.913088,13.19724747,.00021188,87.9191,298.3234,113.1235,247.0121,0,U,54123,999,18121,.12733881E-3,.64E-6,0
ONEWEB-0506,2022-138M,2026-07-20T12:50:28.487616,13.19725681,.00021105,87.9194,298.3263,109.5094,250.6267,0,U,54124,999,18120,.10317193E-3,.54E-6,0
ONEWEB-0507,2022-138N,2026-07-20T07:52:29.040960,13.19726339,.00020993,87.9184,298.3765,105.6064,254.5301,0,U,54125,999,18122,-.3997952E-4,-.3E-7,0
ONEWEB-0508,2022-138P,2026-07-20T07:47:56.904288,13.19725989,.0002306,87.9186,298.3767,109.1512,250.9871,0,U,54126,999,18120,.21790578E-4,.22E-6,0
ONEWEB-0509,2022-138Q,2026-07-20T12:39:04.934016,13.19725046,.00020888,87.9195,298.3294,104.9116,255.2248,0,U,54127,999,18120,.31317859E-3,.138E-5,0
ONEWEB-0510,2022-138R,2026-07-20T05:42:19.820160,13.20771555,.00018806,87.9179,267.8501,85.7388,274.3960,0,U,54128,999,18364,.7482959E-4,.43E-6,0
ONEWEB-0511,2022-138S,2026-07-20T07:06:59.912928,13.19723677,.00017894,87.9192,298.3767,105.3194,254.8137,0,U,54129,999,18120,.12934137E-3,.65E-6,0
ONEWEB-0512,2022-138T,2026-07-20T12:23:08.734848,13.19724660,.00019933,87.9184,298.3358,110.4058,249.7289,0,U,54130,999,18120,.23541014E-3,.107E-5,0
ONEWEB-0513,2022-138U,2026-07-20T06:44:06.099360,13.20270336,.00018074,87.9191,298.3227,127.4096,232.7202,0,U,54131,999,18108,.17649374E-3,.84E-6,0
ONEWEB-0514,2022-138V,2026-07-20T09:07:32.925216,13.19724510,.00019627,87.9192,298.3594,96.5083,263.6273,0,U,54132,999,18120,.18297873E-3,.86E-6,0
ONEWEB-0515,2022-138W,2026-07-20T05:22:57.055872,13.20772049,.00026626,87.9183,267.8489,82.8773,277.2663,0,U,54133,999,18366,.58751888E-4,.37E-6,0
ONEWEB-0516,2022-138X,2026-07-20T06:41:58.813152,13.19724552,.0002179,87.9185,298.3830,101.4910,258.6467,0,U,54134,999,18119,.19615606E-3,.91E-6,0
ONEWEB-0517,2022-138Y,2026-07-20T06:12:24.770592,13.19725682,.00017064,87.9190,298.3820,100.5311,259.6014,0,U,54135,999,18119,.52599816E-3,.224E-5,0
ONEWEB-0518,2022-138Z,2026-07-20T06:39:42.787584,13.19724790,.0002236,87.9185,298.3854,99.8139,260.3247,0,U,54136,999,18119,.127405E-3,.64E-6,0
ONEWEB-0519,2022-138AA,2026-07-20T12:43:37.373088,13.19723842,.00018152,87.9191,298.3291,99.4993,260.6345,0,U,54137,999,18123,.27786457E-4,.24E-6,0
ONEWEB-0520,2022-138AB,2026-07-20T06:16:57.863712,13.19725393,.00021111,87.9193,298.3827,106.2075,253.9291,0,U,54138,999,18118,-.15326875E-3,-.48E-6,0
ONEWEB-0521,2022-138AC,2026-07-20T12:32:14.210880,13.19724469,.00018127,87.9197,298.3202,97.9565,262.1773,0,U,54139,999,18116,.30217719E-3,.134E-5,0
